[
    {
        "Altitude(m)": 624790.769576306,
        "Argument of Periapsis(deg)": 0.0,
        "Eccentricity": 0.0,
        "Inclination(deg)": 60.0,
        "Latitude(deg)": -59.14703832695908,
        "Longitude(deg)": 106.03458999104653,
        "Mean Anomaly(deg)": -81.8182,
        "RAAN(deg)": 280.0,
        "Satellite Name": "Test1 1249",
        "Satellite Number": 1249,
        "Semi-Major Axis(m)": 6980739.136638005,
        "Time(s)": 0
    },
    {
        "Altitude(m)": 624737.4246399836,
        "Argument of Periapsis(deg)": 0.00010418945913296404,
        "Eccentricity": 0.0,
        "Inclination(deg)": 60.0,
        "Latitude(deg)": -58.994493670428305,
        "Longitude(deg)": 107.15408962197826,
        "Mean Anomaly(deg)": -81.19809385453816,
        "RAAN(deg)": 279.99957995086027,
        "Satellite Name": "Test1 1249",
        "Satellite Number": 1249,
        "Semi-Major Axis(m)": 6980739.136638005,
        "Time(s)": 10
    }
]